[{"OBJECT_NAME":"STARLINK-30328","OBJECT_ID":"2023-122G","EPOCH":"2026-03-09T22:00:01.999584","MEAN_MOTION":15.178595,"ECCENTRICITY":0.00012946,"INCLINATION":42.9998,"RA_OF_ASC_NODE":79.434,"ARG_OF_PERICENTER":259.0238,"MEAN_ANOMALY":322.2974,"EPHEMERIS_TYPE":0,"CLASSIFICATION_TYPE":"U","NORAD_CAT_ID":57638,"ELEMENT_SET_NO":999,"REV_AT_EPOCH":567,"BSTAR":0.054710266,"MEAN_MOTION_DOT":0.01234662,"MEAN_MOTION_DDOT":0},{"OBJECT_NAME":"CZ-6A DEB","OBJECT_ID":"2024-140UQ","EPOCH":"2026-03-09T14:36:35.114400","MEAN_MOTION":15.29987293,"ECCENTRICITY":0.0094347,"INCLINATION":89.0483,"RA_OF_ASC_NODE":279.5661,"ARG_OF_PERICENTER":66.0307,"MEAN_ANOMALY":295.0787,"EPHEMERIS_TYPE":0,"CLASSIFICATION_TYPE":"U","NORAD_CAT_ID":61327,"ELEMENT_SET_NO":999,"REV_AT_EPOCH":8299,"BSTAR":0.0015211,"MEAN_MOTION_DOT":0.00050856,"MEAN_MOTION_DDOT":0}]
